[{"OBJECT_NAME":"BIRKELAND","OBJECT_ID":"2023-001G","EPOCH":"2026-03-09T22:29:53.413728","MEAN_MOTION":15.38193984,"ECCENTRICITY":0.00086916,"INCLINATION":97.3442,"RA_OF_ASC_NODE":136.7431,"ARG_OF_PERICENTER":103.0889,"MEAN_ANOMALY":257.1326,"EPHEMERIS_TYPE":0,"CLASSIFICATION_TYPE":"U","NORAD_CAT_ID":55015,"ELEMENT_SET_NO":999,"REV_AT_EPOCH":17708,"BSTAR":0.00029912141,"MEAN_MOTION_DOT":0.00011186,"MEAN_MOTION_DDOT":0},{"OBJECT_NAME":"STARLINK-30440","OBJECT_ID":"2023-147L","EPOCH":"2026-03-09T22:00:01.999584","MEAN_MOTION":15.22871623,"ECCENTRICITY":0.00018121,"INCLINATION":43.0002,"RA_OF_ASC_NODE":324.1324,"ARG_OF_PERICENTER":277.8781,"MEAN_ANOMALY":320.8166,"EPHEMERIS_TYPE":0,"CLASSIFICATION_TYPE":"U","NORAD_CAT_ID":57923,"ELEMENT_SET_NO":999,"REV_AT_EPOCH":577,"BSTAR":0.047292502,"MEAN_MOTION_DOT":0.01234313,"MEAN_MOTION_DDOT":0}]
